[{"OBJECT_NAME":"WGS F1 (USA 195)","OBJECT_ID":"2007-046A","EPOCH":"2026-03-05T10:22:17.531040","MEAN_MOTION":1.00273148,"ECCENTRICITY":2.45e-5,"INCLINATION":0.0792,"RA_OF_ASC_NODE":87.4625,"ARG_OF_PERICENTER":330.3399,"MEAN_ANOMALY":218.4068,"EPHEMERIS_TYPE":0,"CLASSIFICATION_TYPE":"U","NORAD_CAT_ID":32258,"ELEMENT_SET_NO":999,"REV_AT_EPOCH":5129,"BSTAR":0,"MEAN_MOTION_DOT":-2.75e-6,"MEAN_MOTION_DDOT":0},{"OBJECT_NAME":"SKYNET 5B","OBJECT_ID":"2007-056B","EPOCH":"2026-03-05T17:58:01.517952","MEAN_MOTION":1.0027158,"ECCENTRICITY":0.0004006,"INCLINATION":4.9885,"RA_OF_ASC_NODE":74.7366,"ARG_OF_PERICENTER":270.5039,"MEAN_ANOMALY":112.7945,"EPHEMERIS_TYPE":0,"CLASSIFICATION_TYPE":"U","NORAD_CAT_ID":32294,"ELEMENT_SET_NO":999,"REV_AT_EPOCH":6716,"BSTAR":0,"MEAN_MOTION_DOT":1.35e-6,"MEAN_MOTION_DDOT":0},{"OBJECT_NAME":"ASTRA 4A","OBJECT_ID":"2007-057A","EPOCH":"2026-03-05T15:43:54.194304","MEAN_MOTION":1.00271236,"ECCENTRICITY":0.0002399,"INCLINATION":0.0507,"RA_OF_ASC_NODE":294.771,"ARG_OF_PERICENTER":50.2802,"MEAN_ANOMALY":59.1109,"EPHEMERIS_TYPE":0,"CLASSIFICATION_TYPE":"U","NORAD_CAT_ID":32299,"ELEMENT_SET_NO":999,"REV_AT_EPOCH":5060,"BSTAR":0,"MEAN_MOTION_DOT":2.5e-7,"MEAN_MOTION_DDOT":0},{"OBJECT_NAME":"HORIZONS-2","OBJECT_ID":"2007-063B","EPOCH":"2026-03-05T13:38:43.697184","MEAN_MOTION":1.00271417,"ECCENTRICITY":0.0002795,"INCLINATION":2.3349,"RA_OF_ASC_NODE":81.9385,"ARG_OF_PERICENTER":259.2345,"MEAN_ANOMALY":313.0102,"EPHEMERIS_TYPE":0,"CLASSIFICATION_TYPE":"U","NORAD_CAT_ID":32388,"ELEMENT_SET_NO":999,"REV_AT_EPOCH":6677,"BSTAR":0,"MEAN_MOTION_DOT":-2.6e-6,"MEAN_MOTION_DDOT":0},{"OBJECT_NAME":"THURAYA-3","OBJECT_ID":"2008-001A","EPOCH":"2026-03-05T11:02:28.677696","MEAN_MOTION":1.00270439,"ECCENTRICITY":0.0002444,"INCLINATION":5.8141,"RA_OF_ASC_NODE":35.6049,"ARG_OF_PERICENTER":311.0614,"MEAN_ANOMALY":80.6274,"EPHEMERIS_TYPE":0,"CLASSIFICATION_TYPE":"U","NORAD_CAT_ID":32404,"ELEMENT_SET_NO":999,"REV_AT_EPOCH":6645,"BSTAR":0,"MEAN_MOTION_DOT":-3.07e-6,"MEAN_MOTION_DDOT":0},{"OBJECT_NAME":"EXPRESS-AM33","OBJECT_ID":"2008-003A","EPOCH":"2026-02-28T02:25:17.181120","MEAN_MOTION":1.00168878,"ECCENTRICITY":0.00146091,"INCLINATION":4.5219,"RA_OF_ASC_NODE":76.6684,"ARG_OF_PERICENTER":179.556,"MEAN_ANOMALY":341.8533,"EPHEMERIS_TYPE":0,"CLASSIFICATION_TYPE":"U","NORAD_CAT_ID":32478,"ELEMENT_SET_NO":999,"REV_AT_EPOCH":5264,"BSTAR":0,"MEAN_MOTION_DOT":1.28e-6,"MEAN_MOTION_DDOT":0},{"OBJECT_NAME":"THOR 5","OBJECT_ID":"2008-006A","EPOCH":"2026-03-05T15:42:16.850016","MEAN_MOTION":1.0027032,"ECCENTRICITY":0.0002749,"INCLINATION":0.0488,"RA_OF_ASC_NODE":256.4021,"ARG_OF_PERICENTER":99.5116,"MEAN_ANOMALY":42.2733,"EPHEMERIS_TYPE":0,"CLASSIFICATION_TYPE":"U","NORAD_CAT_ID":32487,"ELEMENT_SET_NO":999,"REV_AT_EPOCH":6627,"BSTAR":0,"MEAN_MOTION_DOT":-1.7e-7,"MEAN_MOTION_DDOT":0},{"OBJECT_NAME":"KIZUNA (WINDS)","OBJECT_ID":"2008-007A","EPOCH":"2026-03-05T07:07:57.281664","MEAN_MOTION":1.0028468,"ECCENTRICITY":0.000119,"INCLINATION":8.2803,"RA_OF_ASC_NODE":63.3249,"ARG_OF_PERICENTER":204.2961,"MEAN_ANOMALY":358.508,"EPHEMERIS_TYPE":0,"CLASSIFICATION_TYPE":"U","NORAD_CAT_ID":32500,"ELEMENT_SET_NO":999,"REV_AT_EPOCH":6585,"BSTAR":0,"MEAN_MOTION_DOT":-4.2e-7,"MEAN_MOTION_DDOT":0},{"OBJECT_NAME":"DIRECTV 11","OBJECT_ID":"2008-013A","EPOCH":"2026-03-05T15:14:04.553952","MEAN_MOTION":1.00271456,"ECCENTRICITY":2.44e-5,"INCLINATION":0.0182,"RA_OF_ASC_NODE":329.9501,"ARG_OF_PERICENTER":2.1898,"MEAN_ANOMALY":320.5436,"EPHEMERIS_TYPE":0,"CLASSIFICATION_TYPE":"U","NORAD_CAT_ID":32729,"ELEMENT_SET_NO":999,"REV_AT_EPOCH":4455,"BSTAR":0,"MEAN_MOTION_DOT":-1.33e-6,"MEAN_MOTION_DDOT":0},{"OBJECT_NAME":"ICO G1","OBJECT_ID":"2008-016A","EPOCH":"2026-03-05T11:50:39.060096","MEAN_MOTION":1.00272984,"ECCENTRICITY":0.0002675,"INCLINATION":5.5089,"RA_OF_ASC_NODE":36.3647,"ARG_OF_PERICENTER":291.2538,"MEAN_ANOMALY":280.4112,"EPHEMERIS_TYPE":0,"CLASSIFICATION_TYPE":"U","NORAD_CAT_ID":32763,"ELEMENT_SET_NO":999,"REV_AT_EPOCH":6550,"BSTAR":0,"MEAN_MOTION_DOT":-1.77e-6,"MEAN_MOTION_DDOT":0},{"OBJECT_NAME":"VINASAT-1","OBJECT_ID":"2008-018A","EPOCH":"2026-03-05T16:53:38.623200","MEAN_MOTION":1.00273161,"ECCENTRICITY":0.0002296,"INCLINATION":0.0498,"RA_OF_ASC_NODE":287.1776,"ARG_OF_PERICENTER":97.1766,"MEAN_ANOMALY":164.4167,"EPHEMERIS_TYPE":0,"CLASSIFICATION_TYPE":"U","NORAD_CAT_ID":32767,"ELEMENT_SET_NO":999,"REV_AT_EPOCH":6555,"BSTAR":0,"MEAN_MOTION_DOT":-3.35e-6,"MEAN_MOTION_DDOT":0},{"OBJECT_NAME":"STAR ONE C2","OBJECT_ID":"2008-018B","EPOCH":"2026-03-05T13:41:20.945184","MEAN_MOTION":1.0027154,"ECCENTRICITY":0.0002664,"INCLINATION":0.9755,"RA_OF_ASC_NODE":83.4448,"ARG_OF_PERICENTER":261.1641,"MEAN_ANOMALY":319.0086,"EPHEMERIS_TYPE":0,"CLASSIFICATION_TYPE":"U","NORAD_CAT_ID":32768,"ELEMENT_SET_NO":999,"REV_AT_EPOCH":6561,"BSTAR":0,"MEAN_MOTION_DOT":-2.84e-6,"MEAN_MOTION_DDOT":0},{"OBJECT_NAME":"AMOS-3","OBJECT_ID":"2008-022A","EPOCH":"2026-03-05T15:41:24.432864","MEAN_MOTION":1.00273259,"ECCENTRICITY":0.0001729,"INCLINATION":0.1881,"RA_OF_ASC_NODE":88.9436,"ARG_OF_PERICENTER":187.122,"MEAN_ANOMALY":118.5575,"EPHEMERIS_TYPE":0,"CLASSIFICATION_TYPE":"U","NORAD_CAT_ID":32794,"ELEMENT_SET_NO":999,"REV_AT_EPOCH":8129,"BSTAR":0,"MEAN_MOTION_DOT":-4.2e-7,"MEAN_MOTION_DDOT":0},{"OBJECT_NAME":"GALAXY 18 (G-18)","OBJECT_ID":"2008-024A","EPOCH":"2026-03-05T15:07:27.689376","MEAN_MOTION":1.00271374,"ECCENTRICITY":0.0003225,"INCLINATION":0.0231,"RA_OF_ASC_NODE":159.1537,"ARG_OF_PERICENTER":211.5604,"MEAN_ANOMALY":256.53,"EPHEMERIS_TYPE":0,"CLASSIFICATION_TYPE":"U","NORAD_CAT_ID":32951,"ELEMENT_SET_NO":999,"REV_AT_EPOCH":4481,"BSTAR":0,"MEAN_MOTION_DOT":0,"MEAN_MOTION_DDOT":0},{"OBJECT_NAME":"ZHONGXING-9","OBJECT_ID":"2008-028A","EPOCH":"2026-03-05T16:08:51.800928","MEAN_MOTION":1.00272237,"ECCENTRICITY":0.0008904,"INCLINATION":0.5043,"RA_OF_ASC_NODE":87.0338,"ARG_OF_PERICENTER":239.9516,"MEAN_ANOMALY":171.0129,"EPHEMERIS_TYPE":0,"CLASSIFICATION_TYPE":"U","NORAD_CAT_ID":33051,"ELEMENT_SET_NO":999,"REV_AT_EPOCH":6500,"BSTAR":0,"MEAN_MOTION_DOT":-2.56e-6,"MEAN_MOTION_DDOT":0},{"OBJECT_NAME":"SKYNET 5C","OBJECT_ID":"2008-030A","EPOCH":"2026-03-05T15:37:24.816288","MEAN_MOTION":1.00271244,"ECCENTRICITY":0.0005064,"INCLINATION":3.5241,"RA_OF_ASC_NODE":78.2758,"ARG_OF_PERICENTER":281.6789,"MEAN_ANOMALY":19.9519,"EPHEMERIS_TYPE":0,"CLASSIFICATION_TYPE":"U","NORAD_CAT_ID":33055,"ELEMENT_SET_NO":999,"REV_AT_EPOCH":6491,"BSTAR":0,"MEAN_MOTION_DOT":-1.46e-6,"MEAN_MOTION_DDOT":0},{"OBJECT_NAME":"TURKSAT 3A","OBJECT_ID":"2008-030B","EPOCH":"2026-03-05T15:54:30.677184","MEAN_MOTION":1.00275414,"ECCENTRICITY":0.0004703,"INCLINATION":0.0209,"RA_OF_ASC_NODE":91.5573,"ARG_OF_PERICENTER":279.9473,"MEAN_ANOMALY":72.5122,"EPHEMERIS_TYPE":0,"CLASSIFICATION_TYPE":"U","NORAD_CAT_ID":33056,"ELEMENT_SET_NO":999,"REV_AT_EPOCH":5131,"BSTAR":0,"MEAN_MOTION_DOT":1.39e-6,"MEAN_MOTION_DDOT":0}]
