WGS F1 (USA 195)        
1 32258U 07046A   26064.43214735 -.00000275  00000+0  00000+0 0  9997
2 32258   0.0792  87.4625 0000245 330.3399 218.4068  1.00273148 51295
SKYNET 5B               
1 32294U 07056B   26064.74862868  .00000135  00000+0  00000+0 0  9992
2 32294   4.9885  74.7366 0004006 270.5039 112.7945  1.00271580 67168
ASTRA 4A                
1 32299U 07057A   26064.65548836  .00000025  00000+0  00000+0 0  9992
2 32299   0.0507 294.7710 0002399  50.2802  59.1109  1.00271236 50607
HORIZONS-2              
1 32388U 07063B   26064.56856131 -.00000260  00000+0  00000+0 0  9990
2 32388   2.3349  81.9385 0002795 259.2345 313.0102  1.00271417 66773
THURAYA-3               
1 32404U 08001A   26064.46005414 -.00000307  00000+0  00000+0 0  9993
2 32404   5.8141  35.6049 0002444 311.0614  80.6274  1.00270439 66455
EXPRESS-AM33            
1 32478U 08003A   26059.10089330  .00000128  00000+0  00000+0 0  9990
2 32478   4.5219  76.6684 0014609 179.5560 341.8533  1.00168878 52640
THOR 5                  
1 32487U 08006A   26064.65436169 -.00000017  00000+0  00000+0 0  9993
2 32487   0.0488 256.4021 0002749  99.5116  42.2733  1.00270320 66276
KIZUNA (WINDS)          
1 32500U 08007A   26064.29719076 -.00000042  00000+0  00000+0 0  9999
2 32500   8.2803  63.3249 0001190 204.2961 358.5080  1.00284680 65857
DIRECTV 11              
1 32729U 08013A   26064.63477493 -.00000133  00000+0  00000+0 0  9992
2 32729   0.0182 329.9501 0000244   2.1898 320.5436  1.00271456 44550
ICO G1                  
1 32763U 08016A   26064.49350764 -.00000177  00000+0  00000+0 0  9996
2 32763   5.5089  36.3647 0002675 291.2538 280.4112  1.00272984 65506
VINASAT-1               
1 32767U 08018A   26064.70391925 -.00000335  00000+0  00000+0 0  9996
2 32767   0.0498 287.1776 0002296  97.1766 164.4167  1.00273161 65552
STAR ONE C2             
1 32768U 08018B   26064.57038131 -.00000284  00000+0  00000+0 0  9992
2 32768   0.9755  83.4448 0002664 261.1641 319.0086  1.00271540 65619
AMOS-3                  
1 32794U 08022A   26064.65375501 -.00000042  00000+0  00000+0 0  9992
2 32794   0.1881  88.9436 0001729 187.1220 118.5575  1.00273259 81294
GALAXY 18 (G-18)        
1 32951U 08024A   26064.63018159  .00000000  00000+0  00000+0 0  9993
2 32951   0.0231 159.1537 0003225 211.5604 256.5300  1.00271374 44813
ZHONGXING-9             
1 33051U 08028A   26064.67282177 -.00000256  00000+0  00000+0 0  9990
2 33051   0.5043  87.0338 0008904 239.9516 171.0129  1.00272237 65007
SKYNET 5C               
1 33055U 08030A   26064.65098167 -.00000146  00000+0  00000+0 0  9997
2 33055   3.5241  78.2758 0005064 281.6789  19.9519  1.00271244 64911
TURKSAT 3A              
1 33056U 08030B   26064.66285506  .00000139  00000+0  00000+0 0  9995
2 33056   0.0209  91.5573 0004703 279.9473  72.5122  1.00275414 51318
